1997 XV11,e,44.2685,241.2793,270.1364,1.867281,0.3862687,0.31783056,314.6873,04/18.0/2013,2000,H18.3,0.15
# From MPO179747
1997 YM3,e,3.9306,301.5372,75.8756,3.274355,0.1663472,0.66565027,235.2885,04/18.0/2013,2000,H17.2,0.15
# From MPO 99888
1997 YM9,e,7.8422,94.8069,51.6628,1.095312,0.8597995,0.10356467,90.6103,04/18.0/2013,2000,H24.0,0.15
# From MPO147130
1997 YR10,e,36.7437,270.0567,190.6852,1.718829,0.4373761,0.33394815,280.4412,04/18.0/2013,2000,H20.1,0.15
# From MPO145736
199801 2007 AE12,e,2.2849,245.7520,86.6383,1.684808,0.4506904,0.56930257,34.9773,04/18.0/2013,2000,H19.5,0.15
# From MPO 57667
1998 BY7,e,3.2824,122.0526,90.4506,2.021339,0.3429614,0.60696063,79.4171,04/18.0/2013,2000,H21.5,0.15
# From MPC 31291
1998 BT13,e,1.4263,123.3519,353.4177,2.483875,0.2517731,0.60361623,317.1517,04/18.0/2013,2000,H26.5,0.15
# From MPC 31293
1998 BR26,e,12.2445,129.9840,62.0792,1.639966,0.4693015,0.48870216,66.3542,04/18.0/2013,2000,H26.0,0.15
# From MPC 31294
1998 BC34,e,17.1640,125.8344,16.4929,3.313898,0.1633787,0.56174030,356.8362,01/27.0/1998,2000,H21.0,0.15
# From MPO166084
1998 DX11,e,6.5487,334.8705,162.2269,2.492686,0.2504394,0.60715788,307.0199,04/18.0/2013,2000,H27.0,0.15
# From MPO 57667
1998 DV20,e,19.6777,150.5490,261.6088,1.983305,0.3528740,0.60810504,179.0360,04/18.0/2013,2000,H20.3,0.15
# From MPO166084
1998 DK36,e,2.0251,151.0832,180.4621,0.691940,1.7123832,0.41592015,288.9714,04/18.0/2013,2000,H25.0,0.15
# From MPO242995
1998 EE3,e,6.1543,340.0555,226.2027,2.206192,0.3007731,0.58454754,211.6939,04/18.0/2013,2000,H27.2,0.15
# From MPO 46336
1998 EP4,e,7.1912,352.8573,266.3589,1.560070,0.5058105,0.44104738,232.3719,04/18.0/2013,2000,H21.5,0.15
# From MPO 77364
1998 FL3,e,26.3820,180.1496,121.2986,1.260080,0.6967981,0.24780697,145.4977,04/18.0/2013,2000,H22.0,0.15
# From MPC 32062
1998 FL5,e,14.5263,185.9191,297.5451,1.544644,0.5134064,0.36466479,336.1296,04/18.0/2013,2000,H21.5,0.15
# From MPO234345
1998 FM9,e,10.3611,162.4705,32.1620,2.286068,0.2851480,0.44435133,120.2092,04/18.0/2013,2000,H19.4,0.15
# From MPO206038
1998 FN9,e,14.6249,183.8883,329.2469,1.396513,0.5972230,0.23542962,67.6535,04/18.0/2013,2000,H20.7,0.15
# From MPC 32063
1998 FG12,e,8.6520,22.2876,97.7963,2.242442,0.2935095,0.57846506,195.5298,04/18.0/2013,2000,H21.0,0.15
# From MPO241837
1998 FF14,e,38.6920,359.8675,301.1351,1.253262,0.7024917,0.31228860,181.3399,04/18.0/2013,2000,H20.7,0.15
# From MPO157337
1998 FJ74,e,28.1129,197.1482,282.8659,2.389061,0.2669090,0.53804563,50.5573,04/18.0/2013,2000,H18.8,0.15
# From MPO242995
1998 GC1,e,18.7501,19.0965,117.1365,1.442170,0.5690877,0.29297418,276.5088,04/18.0/2013,2000,H20.9,0.15
# From MPO 13563
1998 GL10,e,8.6857,193.2536,287.4211,3.174545,0.1742537,0.66894833,246.2094,04/18.0/2013,2000,H18.5,0.15
# From MPO 73935
1998 HH1,e,16.0231,203.6346,359.8089,2.162725,0.3098861,0.51072368,259.8743,04/18.0/2013,2000,H23.2,0.15
# From MPO 33020
1998 HK1,e,7.9329,213.6719,24.7938,2.158256,0.3108492,0.42791167,252.0222,04/18.0/2013,2000,H19.6,0.15
# From MPO242995
1998 HM1,e,3.2559,201.7911,70.0523,1.419120,0.5830090,0.36554814,282.7634,04/18.0/2013,2000,H24.4,0.15
# From MPO167544
1998 HN3,e,9.2001,49.2198,250.5927,3.110151,0.1796933,0.61695347,235.6125,04/18.0/2013,2000,H18.3,0.15
# From MPO 64649
1998 HZ7,e,23.0905,214.4750,358.3325,3.259262,0.1675040,0.42991086,200.2601,04/18.0/2013,2000,H17.4,0.15
# From MPO 70217
1998 HD14,e,7.8093,183.9198,260.7953,0.963291,1.0424802,0.31275509,35.4208,04/18.0/2013,2000,H20.9,0.15
# From MPO 7464
1998 HT31,e,6.8023,213.6461,80.5558,2.531354,0.2447229,0.69612507,244.5940,04/18.0/2013,2000,H20.8,0.15
# From MPO 8039
1998 HH49,e,8.4161,23.5846,287.7314,1.550612,0.5104457,0.50244708,227.7194,04/18.0/2013,2000,H21.3,0.15
# From MPO200210
1998 HK49,e,7.6231,57.3404,81.4529,1.381863,0.6067457,0.33138517,123.6372,04/18.0/2013,2000,H22.3,0.15
# From MPO242995
1998 KH,e,26.2968,44.8825,64.2553,1.652531,0.4639590,0.71386564,38.9799,04/18.0/2013,2000,H19.0,0.15
# From MPO 53586
1998 KD3,e,29.3813,241.4377,324.5233,2.044375,0.3371812,0.50960627,43.8359,04/18.0/2013,2000,H20.6,0.15
# From MPO112717
1998 KF3,e,27.1152,226.5769,332.8322,2.129880,0.3170819,0.41778829,304.9169,04/18.0/2013,2000,H18.9,0.15
# From MPO230177
1998 KN3,e,2.3026,314.0508,70.4135,1.541940,0.5147577,0.87332773,246.8463,04/18.0/2013,2000,H18.4,0.15
# From MPO242996
1998 KO3,e,54.6381,65.0434,75.3864,2.625692,0.2316533,0.77460166,195.4497,04/18.0/2013,2000,H19.5,0.15
# From MPO201058
1998 KH9,e,17.6811,82.6817,185.2139,2.205832,0.3008469,0.45838731,189.1091,04/18.0/2013,2000,H18.5,0.15
# From MPC 32089
1998 KJ17,e,9.1761,75.9751,164.0424,1.982883,0.3529868,0.48284771,117.2151,04/18.0/2013,2000,H23.5,0.15
# From MPO 38186
1998 KY26,e,1.4811,84.4404,209.1983,1.232012,0.7207450,0.20155306,287.5778,04/18.0/2013,2000,H25.5,0.15
# From MPO235370
1998 LD,e,22.5074,247.2175,347.7883,1.442721,0.5687620,0.17331616,222.2718,04/18.0/2013,2000,H20.1,0.15
# From MPC 32337
1998 LE,e,9.1597,237.6780,132.7817,1.518127,0.5269164,0.69943195,311.9526,04/18.0/2013,2000,H20.5,0.15
# From MPC 32337
1998 MS2,e,19.2390,268.4190,320.2162,1.732835,0.4320840,0.40285241,196.9810,04/18.0/2013,2000,H20.5,0.15
# From MPO211629
1998 ME3,e,5.9992,129.5304,165.3455,2.176937,0.3068564,0.48330877,211.4706,04/18.0/2013,2000,H19.2,0.15
# From MPC 32338
1998 MV5,e,21.1531,269.4822,313.5429,1.203718,0.7463065,0.18442777,112.6783,04/18.0/2013,2000,H24.0,0.15
# From MPO 41538
1998 MW5,e,6.2868,80.4564,26.6831,1.022618,0.9530905,0.36253731,257.0171,04/18.0/2013,2000,H19.1,0.15
# From MPO166084
1998 MR24,e,6.0721,245.1306,54.7231,1.958615,0.3595674,0.44535597,139.1054,04/18.0/2013,2000,H19.2,0.15
# From MPEC 2013-F57
1998 OK1,e,13.9913,109.7278,298.5004,1.355748,0.6243611,0.42924448,59.0962,04/18.0/2013,2000,H19.2,0.15
# From MPC 32342
1998 OP4,e,13.3351,126.7478,167.4726,2.262128,0.2896865,0.53475041,123.0131,04/18.0/2013,2000,H24.0,0.15
# From MPO103143
1998 QP,e,9.3578,326.6827,78.1848,1.785445,0.4131276,0.58289007,31.0985,04/18.0/2013,2000,H21.2,0.15
# From MPO 57671
1998 QQ,e,36.7824,325.3413,220.4492,1.235277,0.7178893,0.68112756,308.6269,04/18.0/2013,2000,H18.7,0.15
# From MPEC 2013-F40
1998 QA1,e,8.1752,299.0413,332.9788,2.102886,0.3232068,0.53323401,307.1395,04/18.0/2013,2000,H18.9,0.15
# From MPO 34714
1998 QH1,e,12.3863,162.0945,215.5705,2.538743,0.2436554,0.55249563,210.5722,04/18.0/2013,2000,H20.7,0.15
# From MPC 33080
1998 QV3,e,14.2486,332.8755,33.5725,2.316022,0.2796341,0.51147579,46.3609,04/18.0/2013,2000,H20.5,0.15
# From MPO237294
1998 QB28,e,1.0764,341.5749,297.9231,2.073960,0.3299920,0.38030852,353.6980,04/18.0/2013,2000,H20.2,0.15
# From MPO242996
1998 QH28,e,12.9382,328.5003,325.6534,2.579751,0.2378687,0.55082353,200.7682,04/18.0/2013,2000,H22.9,0.15
# From MPO 87340
1998 QK28,e,7.8829,174.6979,204.6302,2.331199,0.2769077,0.58008622,30.2097,04/18.0/2013,2000,H19.4,0.15
# From MPO183519
1998 QQ52,e,4.8231,206.0086,106.1784,2.107375,0.3221745,0.45604377,289.4372,04/18.0/2013,2000,H20.8,0.15
# From MPO 15031
1998 QR52,e,17.6345,316.2622,204.2666,1.043907,0.9240840,0.28786304,86.0047,04/18.0/2013,2000,H18.7,0.15
# From MPO 57672
1998 QA62,e,24.9282,181.3098,273.3563,2.073080,0.3302022,0.74694681,305.6468,04/18.0/2013,2000,H19.0,0.15
# From MPC 33091
1998 QA105,e,8.3265,337.0474,39.9047,2.697716,0.2224384,0.53419728,96.0419,04/18.0/2013,2000,H21.5,0.15
# From MPO 57673
1998 RN1,e,26.8027,345.2350,303.1504,2.609641,0.2337938,0.58945944,179.6142,04/18.0/2013,2000,H18.9,0.15
# From MPO147131
1998 SO,e,30.3457,176.1596,359.8477,0.731400,1.5756917,0.69855048,300.6157,04/18.0/2013,2000,H20.6,0.15
# From MPO 33777
1998 SG2,e,2.5067,152.3800,219.6155,2.245567,0.2928970,0.45940068,113.8941,04/18.0/2013,2000,H19.7,0.15
# From MPO242996
1998 SH2,e,2.4167,10.3323,264.2749,2.704161,0.2216437,0.72320070,120.3976,04/18.0/2013,2000,H20.9,0.15
# From MPO 90007
1998 SJ2,e,10.3755,8.8452,332.8270,2.331509,0.2768525,0.50048490,42.1778,04/18.0/2013,2000,H18.1,0.15
# From MPO242996
1998 SS4,e,9.6046,180.7861,174.5958,2.271554,0.2878853,0.51239264,90.7968,04/18.0/2013,2000,H21.8,0.15
# From MPO242997
1998 SU4,e,23.3838,350.6584,241.8876,1.155280,0.7937309,0.58464543,320.6343,04/18.0/2013,2000,H21.2,0.15
# From MPO142571
1998 SD9,e,2.9107,166.9129,6.4222,0.702492,1.6739493,0.50469247,94.6418,04/18.0/2013,2000,H24.2,0.15
# From MPC 33757
1998 SY14,e,3.4877,39.7304,22.4612,2.828714,0.2071670,0.67232529,1.8819,04/18.0/2013,2000,H20.6,0.15
# From MPO154046
1998 SZ14,e,5.6176,80.0860,271.4572,2.401795,0.2647891,0.47941759,329.6578,04/18.0/2013,2000,H19.2,0.15
# From MPO180952
1998 SB15,e,15.6266,6.8142,67.6037,1.226307,0.7257805,0.16134464,203.8864,04/18.0/2013,2000,H21.0,0.15
# From MPO245810
1998 ST27,e,21.0543,197.5747,322.4518,0.819377,1.3288570,0.52996584,96.0273,04/18.0/2013,2000,H19.5,0.15
# From MPO171000
1998 SZ27,e,23.4166,166.7617,47.6115,0.903381,1.1478830,0.50382194,78.6978,04/18.0/2013,2000,H20.6,0.15
# From MPO 50392
1998 SE35,e,14.6966,334.0486,43.9719,3.019390,0.1878561,0.58946864,281.1607,04/18.0/2013,2000,H19.2,0.15
# From MPO242997
1998 SL36,e,19.1602,353.1452,116.6475,1.394401,0.5985803,0.41988194,236.3501,04/18.0/2013,2000,H20.3,0.15
# From MPO190259
1998 SJ60,e,6.7409,20.2553,350.7241,3.234666,0.1694181,0.35273472,180.4885,04/18.0/2013,2000,H16.1,0.15
# From MPO175165
1998 SJ70,e,7.3710,23.1403,245.1484,2.240046,0.2939806,0.70632259,149.2308,04/18.0/2013,2000,H18.3,0.15
# From MPO 68528
1998 SJ91,e,8.1109,192.5504,162.8919,3.364254,0.1597243,0.40334438,132.3506,04/18.0/2013,2000,H16.6,0.15
# From MPO215056
1998 TT3,e,21.6263,27.4229,48.6727,2.325017,0.2780128,0.50104077,16.7458,04/18.0/2013,2000,H18.8,0.15
# From MPO242997
1998 UR,e,17.3156,28.1465,312.0645,1.644931,0.4671783,0.37645438,334.0057,04/18.0/2013,2000,H22.7,0.15
# From MPO242997
1998 UM1,e,4.8383,3.4252,1.0758,1.695418,0.4464665,0.39960302,212.8764,04/18.0/2013,2000,H23.4,0.15
# From MPO 71974
